NORAD_CAT_ID,OBJECT_NAME,OBJECT_TYPE,EPOCH,MEAN_MOTION,ECCENTRICITY,INCLINATION,RA_OF_ASC_NODE,ARG_OF_PERICENTER,MEAN_ANOMALY,BSTAR,MEAN_MOTION_DOT,MEAN_MOTION_DDOT,TLE_LINE0,TLE_LINE1,TLE_LINE2,SEMIMAJOR_AXIS,PERIOD,APOGEE,PERIGEE,DECAYED
49413.0,STARLINK-3157,PAYLOAD,2023-04-03 03:28:03,15.08863057,0.0001427,53.2187,349.4845,84.6221,275.4934,0.001112,0.00017465,0.0,0 STARLINK-3157,1 49413U 21104F   23093.14448786  .00017465  00000-0  11120-2 0  9998,2 49413  53.2187 349.4845 0001427  84.6221 275.4934 15.08863057 78094,6917.81,95.436,540.662,538.688,0.0
49413.0,STARLINK-3157,PAYLOAD,2023-04-04 01:43:27,15.08856778,0.0001347,53.2178,345.3211,85.164,274.9506,0.00061683,9.547e-05,0.0,0 STARLINK-3157,1 49413U 21104F   23094.07184610  .00009547  00000-0  61683-3 0  9996,2 49413  53.2178 345.3211 0001347  85.1640 274.9506 15.08856778 78235,6917.829,95.436,540.626,538.762,0.0
49413.0,STARLINK-3157,PAYLOAD,2023-04-04 20:48:05,15.08841527,9.74e-05,53.2171,341.7521,65.6233,294.4861,0.00081305,0.00012676,0.0,0 STARLINK-3157,1 49413U 21104F   23094.86672865  .00012676  00000-0  81305-3 0  9997,2 49413  53.2171 341.7521 0000974  65.6233 294.4861 15.08841527 78358,6917.876,95.437,540.415,539.067,0.0
49413.0,STARLINK-3157,PAYLOAD,2023-04-05 01:34:14,15.08846006,0.0001452,53.2175,340.8622,83.001,277.1148,0.00040915,6.231e-05,0.0,0 STARLINK-3157,1 49413U 21104F   23095.06544799  .00006231  00000-0  40915-3 0  9996,2 49413  53.2175 340.8622 0001452  83.0010 277.1148 15.08846006 77298,6917.862,95.437,540.732,538.723,0.0
49413.0,STARLINK-3157,PAYLOAD,2023-04-05 20:38:52,15.08833548,0.0001006,53.2165,337.2912,104.9707,255.1396,0.00012821,1.753e-05,0.0,0 STARLINK-3157,1 49413U 21104F   23095.86033075  .00001753  00000-0  12821-3 0  9993,2 49413  53.2165 337.2912 0001006 104.9707 255.1396 15.08833548 77412,6917.9,95.438,540.461,539.069,0.0
49413.0,STARLINK-3157,PAYLOAD,2023-04-05 22:14:15,15.08833795,0.0001387,53.2168,336.9951,86.2522,273.8628,0.00014403,2.005e-05,0.0,0 STARLINK-3157,1 49413U 21104F   23095.92657342  .00002005  00000-0  14403-3 0  9998,2 49413  53.2168 336.9951 0001387  86.2522 273.8628 15.08833795 78514,6917.899,95.438,540.724,538.805,0.0
49413.0,STARLINK-3157,PAYLOAD,2023-04-06 01:25:02,15.08841104,0.0001385,53.2171,336.3997,83.0989,277.0161,0.00023541,3.461e-05,0.0,0 STARLINK-3157,1 49413U 21104F   23096.05905169  .00003461  00000-0  23541-3 0  9996,2 49413  53.2171 336.3997 0001385  83.0989 277.0161 15.08841104 77444,6917.877,95.437,540.7,538.784,0.0
49413.0,STARLINK-3157,PAYLOAD,2023-04-06 22:05:02,15.08844453,0.0001078,53.2169,332.5328,90.7197,269.3919,0.00030142,4.513e-05,0.0,0 STARLINK-3157,1 49413U 21104F   23096.92017108  .00004513  00000-0  30142-3 0  9993,2 49413  53.2169 332.5328 0001078  90.7197 269.3919 15.08844453 77571,6917.867,95.437,540.478,538.986,0.0
49413.0,STARLINK-3157,PAYLOAD,2023-04-07 01:15:48,15.08850691,0.0001305,53.2167,331.9396,82.1095,278.0045,0.00045131,6.904e-05,0.0,0 STARLINK-3157,1 49413U 21104F   23097.05264994  .00006904  00000-0  45131-3 0  9995,2 49413  53.2167 331.9396 0001305  82.1095 278.0045 15.08850691 78683,6917.848,95.437,540.615,538.81,0.0
49413.0,STARLINK-3157,PAYLOAD,2023-04-07 17:09:40,15.08852246,0.0001653,53.2155,328.9691,68.4336,291.6832,0.00028783,4.297e-05,0.0,0 STARLINK-3157,1 49413U 21104F   23097.71505172  .00004297  00000-0  28783-3 0  9991,2 49413  53.2155 328.9691 0001653  68.4336 291.6832 15.08852246 78789,6917.843,95.437,540.851,538.564,0.0
49413.0,STARLINK-3157,PAYLOAD,2023-04-08 01:06:35,15.08855326,0.000122,53.2161,327.479,82.9714,277.1416,0.00030915,4.638e-05,0.0,0 STARLINK-3157,1 49413U 21104F   23098.04624573  .00004638  00000-0  30915-3 0  9994,2 49413  53.2161 327.4790 0001220  82.9714 277.1416 15.08855326 77745,6917.834,95.437,540.543,538.855,0.0
49413.0,STARLINK-3157,PAYLOAD,2023-04-08 18:35:50,15.0883794,0.0001369,53.2161,324.2082,87.989,272.1259,-3.411e-05,-8.31e-06,0.0,0 STARLINK-3157,1 49413U 21104F   23098.77489256 -.00000831  00000-0 -34110-4 0  9996,2 49413  53.2161 324.2082 0001369  87.9890 272.1259 15.08837940 78943,6917.887,95.438,540.699,538.805,0.0
49413.0,STARLINK-3157,PAYLOAD,2023-04-09 00:57:23,15.08841037,0.0001303,53.2165,323.0185,83.991,276.123,4.1727e-05,3.76e-06,0.0,0 STARLINK-3157,1 49413U 21104F   23099.03985214  .00000376  00000-0  41727-4 0  9995,2 49413  53.2165 323.0185 0001303  83.9910 276.1230 15.08841037 77893,6917.877,95.437,540.644,538.841,0.0
49413.0,STARLINK-3157,PAYLOAD,2023-04-09 21:37:24,15.08841901,0.0001114,53.2166,319.1531,86.1016,274.0103,0.00010138,1.326e-05,0.0,0 STARLINK-3157,1 49413U 21104F   23099.90097354  .00001326  00000-0  10138-3 0  9997,2 49413  53.2166 319.1531 0001114  86.1016 274.0103 15.08841901 79110,6917.875,95.437,540.51,538.969,0.0
49413.0,STARLINK-3157,PAYLOAD,2023-04-10 13:31:15,15.08837784,0.0001369,53.2163,316.1794,68.7752,291.3386,0.0001385,1.917e-05,0.0,0 STARLINK-3157,1 49413U 21104F   23100.56337750  .00001917  00000-0  13850-3 0  9999,2 49413  53.2163 316.1794 0001369  68.7752 291.3386 15.08837784 78129,6917.887,95.438,540.699,538.805,0.0
49413.0,STARLINK-3157,PAYLOAD,2023-04-10 21:28:11,15.08848369,0.0001365,53.2161,314.6921,89.8471,270.2677,0.0002595,3.845e-05,0.0,0 STARLINK-3157,1 49413U 21104F   23100.89457207  .00003845  00000-0  25950-3 0  9991,2 49413  53.2161 314.6921 0001365  89.8471 270.2677 15.08848369 78175,6917.855,95.437,540.664,538.776,0.0
49413.0,STARLINK-3157,PAYLOAD,2023-04-11 16:32:48,15.08838144,0.0001288,53.2157,311.1225,90.0493,270.0647,-9.2224e-06,-4.35e-06,0.0,0 STARLINK-3157,1 49413U 21104F   23101.68945601 -.00000435  00000-0 -92224-5 0  9993,2 49413  53.2157 311.1225 0001288  90.0493 270.0647 15.08838144 79380,6917.886,95.438,540.642,538.86,0.0
49413.0,STARLINK-3157,PAYLOAD,2023-04-11 21:18:58,15.08835433,0.0001521,53.2153,310.2306,79.953,280.1633,-3.683e-05,-8.74e-06,0.0,0 STARLINK-3157,1 49413U 21104F   23101.88817785 -.00000874  00000-0 -36830-4 0  9993,2 49413  53.2153 310.2306 0001521  79.9530 280.1633 15.08835433 78322,6917.894,95.438,540.812,538.707,0.0
49413.0,STARLINK-3157,PAYLOAD,2023-04-13 09:52:50,15.08839376,0.0001289,53.2151,303.3911,88.5811,271.5328,0.00018765,2.7e-05,0.0,0 STARLINK-3157,1 49413U 21104F   23103.41170080  .00002700  00000-0  18765-3 0  9998,2 49413  53.2151 303.3911 0001289  88.5811 271.5328 15.08839376 78554,6917.882,95.438,540.639,538.856,0.0
49413.0,STARLINK-3157,PAYLOAD,2023-04-13 16:14:23,15.08849468,0.0001225,53.2156,302.2015,92.5829,267.5304,0.0004057,6.176e-05,0.0,0 STARLINK-3157,1 49413U 21104F   23103.67665803  .00006176  00000-0  40570-3 0  9998,2 49413  53.2156 302.2015 0001225  92.5829 267.5304 15.08849468 79683,6917.851,95.437,540.564,538.869,0.0
49413.0,STARLINK-3157,PAYLOAD,2023-04-14 08:08:13,15.0887807,0.0001095,53.2153,299.2277,93.6868,266.425,0.0012756,0.00020093,0.0,0 STARLINK-3157,1 49413U 21104F   23104.33904654  .00020093  00000-0  12756-2 0  9990,2 49413  53.2153 299.2277 0001095  93.6868 266.4250 15.08878070 79785,6917.764,95.435,540.387,538.872,0.0
49413.0,STARLINK-3157,PAYLOAD,2023-04-14 11:19:00,15.08839043,0.00012,53.2155,298.6326,94.744,265.3689,0.00013888,1.923e-05,0.0,0 STARLINK-3157,1 49413U 21104F   23104.47153773  .00001923  00000-0  13888-3 0  9992,2 49413  53.2155 298.6326 0001200  94.7440 265.3689 15.08839043 78714,6917.883,95.438,540.578,538.918,0.0
49413.0,STARLINK-3157,PAYLOAD,2023-04-15 12:45:11,15.08838421,0.0001177,53.2155,293.8753,88.0151,272.0975,0.00043969,6.716e-05,0.0,0 STARLINK-3157,1 49413U 21104F   23105.53138102  .00006716  00000-0  43969-3 0  9997,2 49413  53.2155 293.8753 0001177  88.0151 272.0975 15.08838421 79963,6917.885,95.438,540.564,538.936,0.0
49413.0,STARLINK-3157,PAYLOAD,2023-04-15 20:42:06,15.08850721,0.0001191,53.2155,292.3884,87.2717,272.8411,0.00088585,0.00013843,0.0,0 STARLINK-3157,1 49413U 21104F   23105.86258009  .00013843  00000-0  88585-3 0  9994,2 49413  53.2155 292.3884 0001191  87.2717 272.8411 15.08850721 78922,6917.848,95.437,540.537,538.889,0.0
49413.0,STARLINK-3157,PAYLOAD,2023-04-16 03:03:39,15.08830011,0.0001414,53.2158,291.1985,79.2363,280.8788,-3.6304e-06,-3.46e-06,0.0,0 STARLINK-3157,1 49413U 21104F   23106.12754379 -.00000346  00000-0 -36304-5 0  9995,2 49413  53.2158 291.1985 0001414  79.2363 280.8788 15.08830011 80053,6917.911,95.438,540.754,538.798,0.0
49413.0,STARLINK-3157,PAYLOAD,2023-04-16 12:35:58,15.08841892,0.0001204,53.2156,289.4146,96.1909,263.9221,0.00064262,9.955e-05,0.0,0 STARLINK-3157,1 49413U 21104F   23106.52498322  .00009955  00000-0  64262-3 0  9997,2 49413  53.2156 289.4146 0001204  96.1909 263.9221 15.08841892 79029,6917.875,95.437,540.573,538.907,0.0
49413.0,STARLINK-3157,PAYLOAD,2023-04-16 18:57:30,15.0885298,0.0001082,53.2156,288.225,95.6672,264.4444,0.0013922,0.00021946,0.0,0 STARLINK-3157,1 49413U 21104F   23106.78994123  .00021946  00000-0  13922-2 0  9995,2 49413  53.2156 288.2250 0001082  95.6672 264.4444 15.08852980 80156,6917.841,95.437,540.454,538.957,0.0
49413.0,STARLINK-3157,PAYLOAD,2023-04-16 20:32:54,15.08857651,0.0001074,53.2156,287.9282,92.9991,267.1124,0.0017326,0.00027407,0.0,0 STARLINK-3157,1 49413U 21104F   23106.85618106  .00027407  00000-0  17326-2 0  9997,2 49413  53.2156 287.9282 0001074  92.9991 267.1124 15.08857651 79076,6917.826,95.436,540.434,538.948,0.0
49413.0,STARLINK-3157,PAYLOAD,2023-04-17 04:29:49,15.08838523,0.0001134,53.2154,286.441,89.3435,270.7687,0.00036063,5.456e-05,0.0,0 STARLINK-3157,1 49413U 21104F   23107.18738295  .00005456  00000-0  36063-3 0  9996,2 49413  53.2154 286.4410 0001134  89.3435 270.7687 15.08838523 80210,6917.885,95.438,540.534,538.965,0.0
49413.0,STARLINK-3157,PAYLOAD,2023-04-17 12:26:45,15.08843874,0.0001126,53.2152,284.9541,88.4148,271.6973,0.00087258,0.00013628,0.0,0 STARLINK-3157,1 49413U 21104F   23107.51858336  .00013628  00000-0  87258-3 0  9994,2 49413  53.2152 284.9541 0001126  88.4148 271.6973 15.08843874 79174,6917.869,95.437,540.512,538.955,0.0
